[{"OBJECT_NAME":"ONEWEB-0125","OBJECT_ID":"2020-100P","EPOCH":"2025-08-11T22:56:17.535264","MEAN_MOTION":13.12445039,"ECCENTRICITY":0.0001911,"INCLINATION":87.8859,"RA_OF_ASC_NODE":52.1111,"ARG_OF_PERICENTER":96.1229,"MEAN_ANOMALY":264.0117,"EPHEMERIS_TYPE":0,"CLASSIFICATION_TYPE":"U","NORAD_CAT_ID":47271,"ELEMENT_SET_NO":999,"REV_AT_EPOCH":22407,"BSTAR":-2.8433e-5,"MEAN_MOTION_DOT":3.0e-8,"MEAN_MOTION_DDOT":0},{"OBJECT_NAME":"ONEWEB-0126","OBJECT_ID":"2020-100Q","EPOCH":"2025-08-11T21:37:05.534400","MEAN_MOTION":13.12443487,"ECCENTRICITY":0.0001643,"INCLINATION":87.8866,"RA_OF_ASC_NODE":52.1408,"ARG_OF_PERICENTER":88.4973,"MEAN_ANOMALY":271.6344,"EPHEMERIS_TYPE":0,"CLASSIFICATION_TYPE":"U","NORAD_CAT_ID":47272,"ELEMENT_SET_NO":999,"REV_AT_EPOCH":22413,"BSTAR":0.0010757,"MEAN_MOTION_DOT":4.0e-6,"MEAN_MOTION_DDOT":0},{"OBJECT_NAME":"ONEWEB-0127","OBJECT_ID":"2020-100R","EPOCH":"2025-08-11T22:37:35.864544","MEAN_MOTION":13.12441829,"ECCENTRICITY":0.0001624,"INCLINATION":87.886,"RA_OF_ASC_NODE":52.1471,"ARG_OF_PERICENTER":86.4923,"MEAN_ANOMALY":273.6391,"EPHEMERIS_TYPE":0,"CLASSIFICATION_TYPE":"U","NORAD_CAT_ID":47273,"ELEMENT_SET_NO":999,"REV_AT_EPOCH":22416,"BSTAR":-0.0010856,"MEAN_MOTION_DOT":-3.78e-6,"MEAN_MOTION_DDOT":0},{"OBJECT_NAME":"ONEWEB-0128","OBJECT_ID":"2020-100S","EPOCH":"2025-08-12T10:09:00.152352","MEAN_MOTION":13.1244432,"ECCENTRICITY":0.0001773,"INCLINATION":87.8855,"RA_OF_ASC_NODE":52.0772,"ARG_OF_PERICENTER":80.5304,"MEAN_ANOMALY":279.6025,"EPHEMERIS_TYPE":0,"CLASSIFICATION_TYPE":"U","NORAD_CAT_ID":47274,"ELEMENT_SET_NO":999,"REV_AT_EPOCH":22424,"BSTAR":0.00078309,"MEAN_MOTION_DOT":2.94e-6,"MEAN_MOTION_DDOT":0},{"OBJECT_NAME":"ONEWEB-0129","OBJECT_ID":"2020-100T","EPOCH":"2025-08-11T22:39:56.250720","MEAN_MOTION":13.12444307,"ECCENTRICITY":5.87e-5,"INCLINATION":87.8859,"RA_OF_ASC_NODE":52.1159,"ARG_OF_PERICENTER":80.6017,"MEAN_ANOMALY":279.5178,"EPHEMERIS_TYPE":0,"CLASSIFICATION_TYPE":"U","NORAD_CAT_ID":47275,"ELEMENT_SET_NO":999,"REV_AT_EPOCH":22411,"BSTAR":-0.000963,"MEAN_MOTION_DOT":-3.34e-6,"MEAN_MOTION_DDOT":0},{"OBJECT_NAME":"ONEWEB-0130","OBJECT_ID":"2020-100U","EPOCH":"2025-08-12T12:08:07.638144","MEAN_MOTION":13.12448273,"ECCENTRICITY":0.0001872,"INCLINATION":87.8837,"RA_OF_ASC_NODE":52.0022,"ARG_OF_PERICENTER":83.9191,"MEAN_ANOMALY":276.2151,"EPHEMERIS_TYPE":0,"CLASSIFICATION_TYPE":"U","NORAD_CAT_ID":47276,"ELEMENT_SET_NO":999,"REV_AT_EPOCH":22415,"BSTAR":0.0027077,"MEAN_MOTION_DOT":9.87e-6,"MEAN_MOTION_DDOT":0},{"OBJECT_NAME":"ONEWEB-0131","OBJECT_ID":"2020-100V","EPOCH":"2025-08-11T23:15:00.083808","MEAN_MOTION":13.12443194,"ECCENTRICITY":0.000182,"INCLINATION":87.886,"RA_OF_ASC_NODE":52.1376,"ARG_OF_PERICENTER":85.6477,"MEAN_ANOMALY":274.4859,"EPHEMERIS_TYPE":0,"CLASSIFICATION_TYPE":"U","NORAD_CAT_ID":47277,"ELEMENT_SET_NO":999,"REV_AT_EPOCH":22412,"BSTAR":0.00090839,"MEAN_MOTION_DOT":3.4e-6,"MEAN_MOTION_DDOT":0},{"OBJECT_NAME":"ONEWEB-0132","OBJECT_ID":"2020-100W","EPOCH":"2025-08-11T22:07:14.799648","MEAN_MOTION":13.12440471,"ECCENTRICITY":0.0001973,"INCLINATION":87.8856,"RA_OF_ASC_NODE":52.149,"ARG_OF_PERICENTER":89.7388,"MEAN_ANOMALY":270.3966,"EPHEMERIS_TYPE":0,"CLASSIFICATION_TYPE":"U","NORAD_CAT_ID":47278,"ELEMENT_SET_NO":999,"REV_AT_EPOCH":22401,"BSTAR":-0.00047205,"MEAN_MOTION_DOT":-1.57e-6,"MEAN_MOTION_DDOT":0},{"OBJECT_NAME":"ONEWEB-0133","OBJECT_ID":"2020-100X","EPOCH":"2025-08-11T22:30:23.436864","MEAN_MOTION":13.12442121,"ECCENTRICITY":0.0001877,"INCLINATION":87.8846,"RA_OF_ASC_NODE":52.1195,"ARG_OF_PERICENTER":84.3113,"MEAN_ANOMALY":275.8229,"EPHEMERIS_TYPE":0,"CLASSIFICATION_TYPE":"U","NORAD_CAT_ID":47279,"ELEMENT_SET_NO":999,"REV_AT_EPOCH":22417,"BSTAR":-0.0016034,"MEAN_MOTION_DOT":-5.64e-6,"MEAN_MOTION_DDOT":0},{"OBJECT_NAME":"ONEWEB-0134","OBJECT_ID":"2020-100Y","EPOCH":"2025-08-11T21:46:13.935936","MEAN_MOTION":13.12441244,"ECCENTRICITY":0.0001646,"INCLINATION":87.8849,"RA_OF_ASC_NODE":52.1096,"ARG_OF_PERICENTER":79.5822,"MEAN_ANOMALY":280.5492,"EPHEMERIS_TYPE":0,"CLASSIFICATION_TYPE":"U","NORAD_CAT_ID":47280,"ELEMENT_SET_NO":999,"REV_AT_EPOCH":22414,"BSTAR":0.00080587,"MEAN_MOTION_DOT":3.03e-6,"MEAN_MOTION_DDOT":0},{"OBJECT_NAME":"ONEWEB-0135","OBJECT_ID":"2020-100Z","EPOCH":"2025-08-11T22:53:57.792768","MEAN_MOTION":13.1244479,"ECCENTRICITY":0.0001793,"INCLINATION":87.8859,"RA_OF_ASC_NODE":52.1397,"ARG_OF_PERICENTER":74.081,"MEAN_ANOMALY":286.0516,"EPHEMERIS_TYPE":0,"CLASSIFICATION_TYPE":"U","NORAD_CAT_ID":47281,"ELEMENT_SET_NO":999,"REV_AT_EPOCH":22417,"BSTAR":-5.6887e-5,"MEAN_MOTION_DOT":-8.0e-8,"MEAN_MOTION_DDOT":0},{"OBJECT_NAME":"ONEWEB-0136","OBJECT_ID":"2020-100AA","EPOCH":"2025-08-11T21:32:13.111872","MEAN_MOTION":13.12442806,"ECCENTRICITY":0.000152,"INCLINATION":87.8859,"RA_OF_ASC_NODE":52.1192,"ARG_OF_PERICENTER":74.1779,"MEAN_ANOMALY":285.9517,"EPHEMERIS_TYPE":0,"CLASSIFICATION_TYPE":"U","NORAD_CAT_ID":47282,"ELEMENT_SET_NO":999,"REV_AT_EPOCH":22409,"BSTAR":0.00098376,"MEAN_MOTION_DOT":3.67e-6,"MEAN_MOTION_DDOT":0},{"OBJECT_NAME":"ONEWEB-0137","OBJECT_ID":"2020-100AB","EPOCH":"2025-08-11T22:21:15.303168","MEAN_MOTION":13.12441455,"ECCENTRICITY":0.0001664,"INCLINATION":87.8855,"RA_OF_ASC_NODE":52.1185,"ARG_OF_PERICENTER":94.3151,"MEAN_ANOMALY":265.8167,"EPHEMERIS_TYPE":0,"CLASSIFICATION_TYPE":"U","NORAD_CAT_ID":47283,"ELEMENT_SET_NO":999,"REV_AT_EPOCH":22400,"BSTAR":-0.001401,"MEAN_MOTION_DOT":-4.91e-6,"MEAN_MOTION_DDOT":0},{"OBJECT_NAME":"ONEWEB-0138","OBJECT_ID":"2020-100AC","EPOCH":"2025-08-12T12:29:09.161952","MEAN_MOTION":13.12442419,"ECCENTRICITY":0.0001656,"INCLINATION":87.8854,"RA_OF_ASC_NODE":52.0111,"ARG_OF_PERICENTER":86.1475,"MEAN_ANOMALY":273.9843,"EPHEMERIS_TYPE":0,"CLASSIFICATION_TYPE":"U","NORAD_CAT_ID":47284,"ELEMENT_SET_NO":999,"REV_AT_EPOCH":22416,"BSTAR":0.00097333,"MEAN_MOTION_DOT":3.63e-6,"MEAN_MOTION_DDOT":0},{"OBJECT_NAME":"ONEWEB-0139","OBJECT_ID":"2020-100AD","EPOCH":"2025-08-11T22:47:10.278528","MEAN_MOTION":13.12443348,"ECCENTRICITY":0.0001753,"INCLINATION":87.8851,"RA_OF_ASC_NODE":52.1183,"ARG_OF_PERICENTER":88.5804,"MEAN_ANOMALY":271.5526,"EPHEMERIS_TYPE":0,"CLASSIFICATION_TYPE":"U","NORAD_CAT_ID":47285,"ELEMENT_SET_NO":999,"REV_AT_EPOCH":22416,"BSTAR":-0.00060707,"MEAN_MOTION_DOT":-2.06e-6,"MEAN_MOTION_DDOT":0},{"OBJECT_NAME":"ONEWEB-0140","OBJECT_ID":"2020-100AE","EPOCH":"2025-08-12T06:50:28.086720","MEAN_MOTION":13.12442383,"ECCENTRICITY":0.0001694,"INCLINATION":87.8853,"RA_OF_ASC_NODE":52.0349,"ARG_OF_PERICENTER":85.4581,"MEAN_ANOMALY":274.6741,"EPHEMERIS_TYPE":0,"CLASSIFICATION_TYPE":"U","NORAD_CAT_ID":47286,"ELEMENT_SET_NO":999,"REV_AT_EPOCH":22416,"BSTAR":0.0011207,"MEAN_MOTION_DOT":4.16e-6,"MEAN_MOTION_DDOT":0},{"OBJECT_NAME":"ONEWEB-0141","OBJECT_ID":"2020-100AF","EPOCH":"2025-08-11T22:46:45.854112","MEAN_MOTION":13.12444855,"ECCENTRICITY":0.0001651,"INCLINATION":87.8845,"RA_OF_ASC_NODE":52.119,"ARG_OF_PERICENTER":98.8344,"MEAN_ANOMALY":261.2971,"EPHEMERIS_TYPE":0,"CLASSIFICATION_TYPE":"U","NORAD_CAT_ID":47287,"ELEMENT_SET_NO":999,"REV_AT_EPOCH":22411,"BSTAR":-0.00055029,"MEAN_MOTION_DOT":-1.85e-6,"MEAN_MOTION_DDOT":0}]
