ONEWEB-0125             
1 47271U 20100P   25223.95575851  .00000003  00000+0 -28433-4 0  9990
2 47271  87.8859  52.1111 0001911  96.1229 264.0117 13.12445039224078
ONEWEB-0126             
1 47272U 20100Q   25223.90075850  .00000400  00000+0  10757-2 0  9998
2 47272  87.8866  52.1408 0001643  88.4973 271.6344 13.12443487224136
ONEWEB-0127             
1 47273U 20100R   25223.94277621 -.00000378  00000+0 -10856-2 0  9999
2 47273  87.8860  52.1471 0001624  86.4923 273.6391 13.12441829224168
ONEWEB-0128             
1 47274U 20100S   25224.42291843  .00000294  00000+0  78309-3 0  9999
2 47274  87.8855  52.0772 0001773  80.5304 279.6025 13.12444320224247
ONEWEB-0129             
1 47275U 20100T   25223.94440105 -.00000334  00000+0 -96300-3 0  9991
2 47275  87.8859  52.1159 0000587  80.6017 279.5178 13.12444307224115
ONEWEB-0130             
1 47276U 20100U   25224.50564396  .00000987  00000+0  27077-2 0  9990
2 47276  87.8837  52.0022 0001872  83.9191 276.2151 13.12448273224152
ONEWEB-0131             
1 47277U 20100V   25223.96875097  .00000340  00000+0  90839-3 0  9993
2 47277  87.8860  52.1376 0001820  85.6477 274.4859 13.12443194224120
ONEWEB-0132             
1 47278U 20100W   25223.92169907 -.00000157  00000+0 -47205-3 0  9993
2 47278  87.8856  52.1490 0001973  89.7388 270.3966 13.12440471224015
ONEWEB-0133             
1 47279U 20100X   25223.93777126 -.00000564  00000+0 -16034-2 0  9990
2 47279  87.8846  52.1195 0001877  84.3113 275.8229 13.12442121224170
ONEWEB-0134             
1 47280U 20100Y   25223.90710574  .00000303  00000+0  80587-3 0  9997
2 47280  87.8849  52.1096 0001646  79.5822 280.5492 13.12441244224149
ONEWEB-0135             
1 47281U 20100Z   25223.95414112 -.00000008  00000+0 -56887-4 0  9993
2 47281  87.8859  52.1397 0001793  74.0810 286.0516 13.12444790224175
ONEWEB-0136             
1 47282U 20100AA  25223.89737398  .00000367  00000+0  98376-3 0  9995
2 47282  87.8859  52.1192 0001520  74.1779 285.9517 13.12442806224098
ONEWEB-0137             
1 47283U 20100AB  25223.93142712 -.00000491  00000+0 -14010-2 0  9993
2 47283  87.8855  52.1185 0001664  94.3151 265.8167 13.12441455224002
ONEWEB-0138             
1 47284U 20100AC  25224.52024493  .00000363  00000+0  97333-3 0  9991
2 47284  87.8854  52.0111 0001656  86.1475 273.9843 13.12442419224168
ONEWEB-0139             
1 47285U 20100AD  25223.94942452 -.00000206  00000+0 -60707-3 0  9994
2 47285  87.8851  52.1183 0001753  88.5804 271.5526 13.12443348224160
ONEWEB-0140             
1 47286U 20100AE  25224.28504730  .00000416  00000+0  11207-2 0  9997
2 47286  87.8853  52.0349 0001694  85.4581 274.6741 13.12442383224169
ONEWEB-0141             
1 47287U 20100AF  25223.94914183 -.00000185  00000+0 -55029-3 0  9993
2 47287  87.8845  52.1190 0001651  98.8344 261.2971 13.12444855224112
